DONGPO 02               
1 53452U 22098J   26160.92985567  .00100680  00000+0  72739-3 0  9991
2 53452  97.5506 291.4984 0001551 299.8428  60.2681 15.73198046213658
DONGPO 01               
1 53453U 22098K   26160.97443775  .00091102  00000+0  71732-3 0  9997
2 53453  97.5572 292.0910 0001377 241.1251 118.9874 15.71182320213626
STARLINK-4400           
1 53468U 22099D   26160.33633975  .00007241  00000+0  50575-3 0  9990
2 53468  97.3823 279.7186 0001375 128.2657 231.8694 15.05620212209768
STARLINK-4621           
1 53676U 22105AE  26160.67138694 -.00000277  00000+0 -15182-4 0  9994
2 53676  97.3812  40.0499 0002473  86.1810 273.9700 15.05652344207074
SHERPA-LTC2             
1 53754U 22107BG  26160.56981022  .00006547  00000+0  33270-3 0  9993
2 53754  53.2352 252.5754 0394692 204.6852 153.4776 14.69617588201423
CENTISPACE-1 S3         
1 53757U 22108A   26160.68363676  .00000429  00000+0  12449-3 0  9997
2 53757  53.5330  86.2863 0008900 333.9052  26.1474 14.61243063200436
CENTISPACE-1 S4         
1 53758U 22108B   26160.80815495  .00000565  00000+0  14961-3 0  9995
2 53758  53.5305  83.3244 0008160 321.6368  38.4026 14.61921702200489
BLUEWALKER-3            
1 53807U 22111AL  26160.44790488  .00005236  00000+0  14746-3 0  9999
2 53807  53.2293  70.3023 0006884 138.9508 221.2017 15.38173453209011
YUNHAI-1 03             
1 53877U 22115A   26160.92435361  .00000297  00000+0  12513-3 0  9991
2 53877  98.5532 159.1637 0005980  72.7857 287.3981 14.32713105194474
CENTISPACE-1 S5         
1 54020U 22126A   26160.84140800  .00000656  00000+0  16361-3 0  9990
2 54020  54.9986 242.3560 0014360  58.8559 301.3841 14.63003671195961
CENTISPACE-1 S6         
1 54021U 22126B   26160.83095044  .00000461  00000+0  12774-3 0  9997
2 54021  54.9989 244.2289 0016211  58.6064 301.6513 14.62282997195924
OTB-3-GAZELLE           
1 54023U 22127A   26160.70803917  .00000141  00000+0  55363-4 0  9999
2 54023  98.3940 152.5263 0012476 206.3733 153.6823 14.42671717193288
ASO-S                   
1 54029U 22129A   26160.94954559  .00000195  00000+0  59141-4 0  9999
2 54029  98.2747 166.1336 0015632 113.0131 247.2715 14.52058250194376
HJ-2E                   
1 54035U 22132A   26160.92279877  .00007419  00000+0  32393-3 0  9996
2 54035  97.3800 165.4305 0021467  39.7830 320.4975 15.22205966203317
COSMOS 2561             
1 54109U 22137A   26160.48750566  .00011670  00000+0  19840-3 0  9999
2 54109  96.9184 219.7774 0011476  61.1813 299.0591 15.51506260205153
GONETS-M 23             
1 54150U 22139A   26160.93754564  .00000037  00000+0  19376-3 0  9998
2 54150  82.5072 352.8008 0020666 236.2162 123.6949 12.42890477164749
GONETS-M 24             
1 54151U 22139B   26160.91064610  .00000040  00000+0  21632-3 0  9995
2 54151  82.4983 351.8823 0015817 246.9764 112.9648 12.42891088164748
GONETS-M 25             
1 54152U 22139C   26160.89702182  .00000035  00000+0  18462-3 0  9997
2 54152  82.5054 352.5732 0019740 245.5615 114.3405 12.42889773164740
SKIF-D                  
1 54153U 22139D   26160.26236661  .00000013  00000+0  00000+0 0  9994
2 54153  89.9519  96.6699 0007384 202.8670 157.1456  5.00429725 63713
MATS                    
1 54227U 22147A   26160.80348384  .00003090  00000+0  22005-3 0  9992
2 54227  97.6827 162.4325 0011291 217.8488 142.1945 15.05313627196652
JILIN-1 GAOFEN 03D54    
1 54254U 22155D   26160.94079093  .00300441  37011-4  82253-3 0  9992
2 54254  97.6106 313.1067 0004011 266.2361  93.8455 15.94032223199143
EOS-6 (OCEANSAT-3)      
1 54361U 22158A   26160.97122470  .00000241  00000+0  78251-4 0  9997
2 54361  98.3538 259.2612 0001572  56.2409 303.8933 14.46996189186792
DONGPO 09               
1 54685U 22167D   26160.91945782  .00011616  00000+0  33183-3 0  9991
2 54685  97.6896 331.6036 0003346 132.3528 227.7999 15.36172297194335
DONGPO 08               
1 54686U 22167E   26160.95248347  .00010860  00000+0  33751-3 0  9990
2 54686  97.6859 328.8503 0008110 184.6953 175.4213 15.33500850194210
2022-167F               
1 54687U 22167F   26160.91461028  .00214962  18909-4  73933-3 0  9997
2 54687  97.6114 347.9481 0001052 184.1998 175.9265 15.89618142195672
DONGPO 10               
1 54689U 22167H   26160.96293358  .00011069  00000+0  33550-3 0  9995
2 54689  97.6940 330.7956 0006073 130.5123 229.6649 15.34305599194256
JILIN-1 GAOFEN 03D48    
1 54695U 22167P   26160.96423087  .00011572  00000+0  34219-3 0  9998
2 54695  97.6875 330.1725 0007374 136.4746 223.7079 15.35065491194289
STAR VIBE               
1 55009U 23001A   26160.96962833  .00014167  00000+0  32931-3 0  9995
2 55009  97.3175 225.4052 0007000 132.7957 227.3881 15.42417256191115
BRO-8                   
1 55011U 23001C   26160.94136925  .00031847  00000+0  59629-3 0  9998
2 55011  97.3218 226.0231 0006886 143.1561 217.0164 15.48609742191085
CONNECTA T1.2           
1 55012U 23001D   26160.74874832  .00039685  00000+0  70315-3 0  9996
2 55012  97.3279 231.3100 0006831 124.5745 235.6152 15.50143498191395
