OBJECT_NAME,OBJECT_ID,EPOCH,MEAN_MOTION,ECCENTRICITY,INCLINATION,RA_OF_ASC_NODE,ARG_OF_PERICENTER,MEAN_ANOMALY,EPHEMERIS_TYPE,CLASSIFICATION_TYPE,NORAD_CAT_ID,ELEMENT_SET_NO,REV_AT_EPOCH,BSTAR,MEAN_MOTION_DOT,MEAN_MOTION_DDOT
DONGPO 02,2022-098J,2026-06-09T22:18:59.529888,15.73198046,.00015518,97.5506,291.4984,299.8428,60.2681,0,U,53452,999,21365,.72738569E-3,.10068E-2,0
DONGPO 01,2022-098K,2026-06-09T23:23:11.421600,15.71182320,.00013775,97.5572,292.0910,241.1251,118.9874,0,U,53453,999,21362,.71732148E-3,.91102E-3,0
STARLINK-4400,2022-099D,2026-06-09T08:04:19.754400,15.05620212,.00013756,97.3823,279.7186,128.2657,231.8694,0,U,53468,999,20976,.50574958E-3,.7241E-4,0
STARLINK-4621,2022-105AE,2026-06-09T16:06:47.831616,15.05652344,.00024738,97.3812,40.0499,86.1810,273.9700,0,U,53676,999,20707,-.15181713E-4,-.277E-5,0
SHERPA-LTC2,2022-107BG,2026-06-09T13:40:31.603008,14.69617588,.0394692,53.2352,252.5754,204.6852,153.4776,0,U,53754,999,20142,.33270308E-3,.6547E-4,0
CENTISPACE-1 S3,2022-108A,2026-06-09T16:24:26.216064,14.61243063,.00089007,53.5330,86.2863,333.9052,26.1474,0,U,53757,999,20043,.12448642E-3,.429E-5,0
CENTISPACE-1 S4,2022-108B,2026-06-09T19:23:44.587680,14.61921702,.00081609,53.5305,83.3244,321.6368,38.4026,0,U,53758,999,20048,.14960942E-3,.565E-5,0
BLUEWALKER-3,2022-111AL,2026-06-09T10:44:58.981632,15.38173453,.00068847,53.2293,70.3023,138.9508,221.2017,0,U,53807,999,20901,.14745681E-3,.5236E-4,0
YUNHAI-1 03,2022-115A,2026-06-09T22:11:04.151904,14.32713105,.00059804,98.5532,159.1637,72.7857,287.3981,0,U,53877,999,19447,.12512633E-3,.297E-5,0
CENTISPACE-1 S5,2022-126A,2026-06-09T20:11:37.651200,14.63003671,.001436,54.9986,242.3560,58.8559,301.3841,0,U,54020,999,19596,.16360649E-3,.656E-5,0
CENTISPACE-1 S6,2022-126B,2026-06-09T19:56:34.118016,14.62282997,.00162116,54.9989,244.2289,58.6064,301.6513,0,U,54021,999,19592,.12773874E-3,.461E-5,0
OTB-3-GAZELLE,2022-127A,2026-06-09T16:59:34.584288,14.42671717,.00124761,98.3940,152.5263,206.3733,153.6823,0,U,54023,999,19328,.55362502E-4,.141E-5,0
ASO-S,2022-129A,2026-06-09T22:47:20.738976,14.52058250,.00156329,98.2747,166.1336,113.0131,247.2715,0,U,54029,999,19437,.59140518E-4,.195E-5,0
HJ-2E,2022-132A,2026-06-09T22:08:49.813728,15.22205966,.00214673,97.3800,165.4305,39.7830,320.4975,0,U,54035,999,20331,.32393249E-3,.7419E-4,0
COSMOS 2561,2022-137A,2026-06-09T11:42:00.489024,15.51506260,.0011476,96.9184,219.7774,61.1813,299.0591,0,U,54109,999,20515,.1984E-3,.1167E-3,0
GONETS-M 23,2022-139A,2026-06-09T22:30:03.943296,12.42890477,.00206664,82.5072,352.8008,236.2162,123.6949,0,U,54150,999,16474,.19376125E-3,.37E-6,0
GONETS-M 24,2022-139B,2026-06-09T21:51:19.823040,12.42891088,.00158173,82.4983,351.8823,246.9764,112.9648,0,U,54151,999,16474,.21632087E-3,.4E-6,0
GONETS-M 25,2022-139C,2026-06-09T21:31:42.685248,12.42889773,.00197404,82.5054,352.5732,245.5615,114.3405,0,U,54152,999,16474,.18461649E-3,.35E-6,0
SKIF-D,2022-139D,2026-06-09T06:17:48.475104,5.00429725,.00073846,89.9519,96.6699,202.8670,157.1456,0,U,54153,999,6371,0,.13E-6,0
MATS,2022-147A,2026-06-09T19:17:01.003776,15.05313627,.00112911,97.6827,162.4325,217.8488,142.1945,0,U,54227,999,19665,.22004513E-3,.309E-4,0
JILIN-1 GAOFEN 03D54,2022-155D,2026-06-09T22:34:44.336352,15.94032223,.00040115,97.6106,313.1067,266.2361,93.8455,0,U,54254,999,19914,.82252873E-3,.300441E-2,.37011472E-4
EOS-6 (OCEANSAT-3),2022-158A,2026-06-09T23:18:33.814080,14.46996189,.0001572,98.3538,259.2612,56.2409,303.8933,0,U,54361,999,18679,.78250877E-4,.241E-5,0
DONGPO 09,2022-167D,2026-06-09T22:04:01.155648,15.36172297,.00033464,97.6896,331.6036,132.3528,227.7999,0,U,54685,999,19433,.33182897E-3,.11616E-3,0
DONGPO 08,2022-167E,2026-06-09T22:51:34.571808,15.33500850,.00081108,97.6859,328.8503,184.6953,175.4213,0,U,54686,999,19421,.33751159E-3,.1086E-3,0
2022-167F,2022-167F,2026-06-09T21:57:02.328192,15.89618142,.00010527,97.6114,347.9481,184.1998,175.9265,0,U,54687,999,19567,.73933084E-3,.214962E-2,.18909451E-4
DONGPO 10,2022-167H,2026-06-09T23:06:37.461312,15.34305599,.00060733,97.6940,330.7956,130.5123,229.6649,0,U,54689,999,19425,.33549949E-3,.11069E-3,0
JILIN-1 GAOFEN 03D48,2022-167P,2026-06-09T23:08:29.547168,15.35065491,.00073741,97.6875,330.1725,136.4746,223.7079,0,U,54695,999,19428,.3421907E-3,.11572E-3,0
STAR VIBE,2023-001A,2026-06-09T23:16:15.887712,15.42417256,.00070007,97.3175,225.4052,132.7957,227.3881,0,U,55009,999,19111,.32931437E-3,.14167E-3,0
BRO-8,2023-001C,2026-06-09T22:35:34.303200,15.48609742,.00068869,97.3218,226.0231,143.1561,217.0164,0,U,55011,999,19108,.59629277E-3,.31847E-3,0
CONNECTA T1.2,2023-001D,2026-06-09T17:58:11.854848,15.50143498,.0006831,97.3279,231.3100,124.5745,235.6152,0,U,55012,999,19139,.70314677E-3,.39685E-3,0
